OBJECT B                
1 51825U 22019B   25236.93991240  .00020184  00000+0  45401-3 0  9991
2 51825  97.3807 314.4732 0010893 131.6230 228.5953 15.43288938193668
